DMSP 5D-3 F16 (USA 172) 
1 28054U 03048A   26087.94945919  .00000162  00000+0  10835-3 0  9995
2 28054  98.9969 111.2207 0007369  23.2717  39.6511 14.14469508158148
METEOSAT-9 (MSG-2)      
1 28912U 05049B   26087.55372006  .00000111  00000+0  00000+0 0  9992
2 28912   9.1814  54.9434 0000189 125.5968 250.3933  1.00272852  6198
DMSP 5D-3 F17 (USA 191) 
1 29522U 06050A   26087.84110430  .00000201  00000+0  12616-3 0  9996
2 29522  98.7409  96.0478 0008949 287.7449  72.2747 14.14972443  1069
FENGYUN 3A              
1 32958U 08026A   26087.83654698  .00000100  00000+0  68061-4 0  9990
2 32958  98.6822  30.2008 0008860   6.9013 353.2283 14.19552128924007
GOES 14                 
1 35491U 09033A   26087.79569447  .00000053  00000+0  00000+0 0  9997
2 35491   1.4830  84.0229 0001716 277.8076 297.9517  1.00108649  5786
DMSP 5D-3 F18 (USA 210) 
1 35951U 09057A   26087.87716165  .00000293  00000+0  17482-3 0  9996
2 35951  98.8989  68.8459 0012038 116.3880 243.8531 14.14848205848235
EWS-G2 (GOES 15)        
1 36411U 10008A   26087.66997493  .00000003  00000+0  00000+0 0  9991
2 36411   1.0678  84.4611 0002661  19.3681  26.7430  1.00270308 58833
COMS 1                  
1 36744U 10032A   26087.85532473 -.00000360  00000+0  00000+0 0  9998
2 36744   4.5984  76.4793 0001053 282.4878 263.3521  1.00272717 50284
FENGYUN 3B              
1 37214U 10059A   26087.89956779  .00000212  00000+0  13318-3 0  9998
2 37214  98.9732 133.5396 0022948  56.0255  22.4793 14.14823169796070
SUOMI NPP               
1 37849U 11061A   26087.91542407  .00000075  00000+0  56697-4 0  9993
2 37849  98.7893  29.3674 0001675 159.0398 201.0847 14.19498498747054
METEOSAT-10 (MSG-3)     
1 38552U 12035B   26087.75868764 -.00000023  00000+0  00000+0 0  9992
2 38552   4.4824  61.3529 0002458 284.8080 113.1895  1.00271341 50059
METOP-B                 
1 38771U 12049A   26087.80249143  .00000114  00000+0  71964-4 0  9992
2 38771  98.6600 140.8723 0002039 189.9198 170.1940 14.21424433701841
INSAT-3D                
1 39216U 13038B   26087.92697383 -.00000357  00000+0  00000+0 0  9990
2 39216   1.7193  83.5487 0001581 246.4245 319.6131  1.00268949 46273
FENGYUN 3C              
1 39260U 13052A   26087.89936288  .00000136  00000+0  90458-4 0  9996
2 39260  98.4924  65.4900 0013515 253.5460 106.4230 14.15734930647204
METEOR-M 2              
1 40069U 14037A   26087.90024181  .00000130  00000+0  78719-4 0  9991
2 40069  98.5055  66.5111 0004557 272.0671  87.9985 14.21436753607914
HIMAWARI-8              
1 40267U 14060A   26087.92914051 -.00000295  00000+0  00000+0 0  9999
2 40267   0.0225 110.3390 0000779 227.2731 323.8727  1.00270447 41950
FENGYUN 2G              
1 40367U 14090A   26087.92101834 -.00000315  00000+0  00000+0 0  9993
2 40367   5.4366  73.7708 0001774 147.9808  35.5937  1.00263520 41190
